{
  "type": "FeatureCollection",
  "features": [
    {
      "type": "Feature",
      "properties": {
        "norad_id": 29816,
        "name": "FENGYUN 1C DEB",
        "group": "fengyun-1c-debris",
        "lat": 44.38662334879347,
        "lon": -172.18176278106245,
        "alt_km": 900.0139169410104,
        "timestamp": "2025-12-03T06:58:43.509310+00:00",
        "meta_object_name": "FENGYUN 1C DEB",
        "meta_object_id": "1999-025DJ",
        "meta_epoch": "2025-12-02T14:24:01.575072",
        "meta_mean_motion": 14.44128435,
        "meta_eccentricity": 0.02379299,
        "meta_inclination": 98.9939,
        "meta_ra_of_asc_node": 196.0057,
        "meta_arg_of_pericenter": 207.3865,
        "meta_mean_anomaly": 209.5787,
        "meta_ephemeris_type": 0,
        "meta_classification_type": "U",
        "meta_norad_cat_id": 29816,
        "meta_element_set_no": 999,
        "meta_rev_at_epoch": 98041,
        "meta_bstar": 0.0016646457,
        "meta_mean_motion_dot": 8.015e-05,
        "meta_mean_motion_ddot": 0,
        "tle_line1": "1 29816U 99025DJ  25336.60001823  .00008015  00000+0  16646-2 0  9998",
        "tle_line2": "2 29816  98.9939 196.0057 0237929 207.3865 209.5787 14.44128435980412"
      },
      "geometry": {
        "type": "Point",
        "coordinates": [
          -172.18176278106245,
          44.38662334879347
        ]
      }
    },
    {
      "type": "Feature",
      "properties": {
        "norad_id": 29817,
        "name": "FENGYUN 1C DEB",
        "group": "fengyun-1c-debris",
        "lat": -73.19248415272199,
        "lon": -3.213671249274701,
        "alt_km": 856.3444496903594,
        "timestamp": "2025-12-03T06:58:43.509321+00:00",
        "meta_object_name": "FENGYUN 1C DEB",
        "meta_object_id": "1999-025DK",
        "meta_epoch": "2025-12-02T13:11:56.389344",
        "meta_mean_motion": 14.14231657,
        "meta_eccentricity": 0.00127209,
        "meta_inclination": 98.557,
        "meta_ra_of_asc_node": 326.179,
        "meta_arg_of_pericenter": 43.4733,
        "meta_mean_anomaly": 71.6243,
        "meta_ephemeris_type": 0,
        "meta_classification_type": "U",
        "meta_norad_cat_id": 29817,
        "meta_element_set_no": 999,
        "meta_rev_at_epoch": 97251,
        "meta_bstar": 0.00040604122,
        "meta_mean_motion_dot": 7.34e-06,
        "meta_mean_motion_ddot": 0,
        "tle_line1": "1 29817U 99025DK  25336.54995821  .00000734  00000+0  40604-3 0  9994",
        "tle_line2": "2 29817  98.5570 326.1790 0012720  43.4733  71.6243 14.14231657972518"
      },
      "geometry": {
        "type": "Point",
        "coordinates": [
          -3.213671249274701,
          -73.19248415272199
        ]
      }
    },
    {
      "type": "Feature",
      "properties": {
        "norad_id": 29818,
        "name": "FENGYUN 1C DEB",
        "group": "fengyun-1c-debris",
        "lat": -10.420023195525916,
        "lon": -143.4095639669374,
        "alt_km": 843.1413163970283,
        "timestamp": "2025-12-03T06:58:43.509350+00:00",
        "meta_object_name": "FENGYUN 1C DEB",
        "meta_object_id": "1999-025DL",
        "meta_epoch": "2025-12-02T15:56:00.343968",
        "meta_mean_motion": 14.04491092,
        "meta_eccentricity": 0.01154469,
        "meta_inclination": 98.7219,
        "meta_ra_of_asc_node": 214.3705,
        "meta_arg_of_pericenter": 53.9557,
        "meta_mean_anomaly": 8.8939,
        "meta_ephemeris_type": 0,
        "meta_classification_type": "U",
        "meta_norad_cat_id": 29818,
        "meta_element_set_no": 999,
        "meta_rev_at_epoch": 96668,
        "meta_bstar": 0.00030662859,
        "meta_mean_motion_dot": 4.78e-06,
        "meta_mean_motion_ddot": 0,
        "tle_line1": "1 29818U 99025DL  25336.66389287  .00000478  00000+0  30663-3 0  9990",
        "tle_line2": "2 29818  98.7219 214.3705 0115446  53.9557   8.8939 14.04491092966689"
      },
      "geometry": {
        "type": "Point",
        "coordinates": [
          -143.4095639669374,
          -10.420023195525916
        ]
      }
    },
    {
      "type": "Feature",
      "properties": {
        "norad_id": 29819,
        "name": "FENGYUN 1C DEB",
        "group": "fengyun-1c-debris",
        "lat": -3.8032108737020773,
        "lon": 140.8391059511574,
        "alt_km": 887.8353302469877,
        "timestamp": "2025-12-03T06:58:43.509362+00:00",
        "meta_object_name": "FENGYUN 1C DEB",
        "meta_object_id": "1999-025DM",
        "meta_epoch": "2025-12-02T20:11:57.346080",
        "meta_mean_motion": 14.02173682,
        "meta_eccentricity": 0.019162,
        "meta_inclination": 98.7301,
        "meta_ra_of_asc_node": 320.9939,
        "meta_arg_of_pericenter": 94.6347,
        "meta_mean_anomaly": 340.9483,
        "meta_ephemeris_type": 0,
        "meta_classification_type": "U",
        "meta_norad_cat_id": 29819,
        "meta_element_set_no": 999,
        "meta_rev_at_epoch": 96481,
        "meta_bstar": 0.00048651,
        "meta_mean_motion_dot": 8.34e-06,
        "meta_mean_motion_ddot": 0,
        "tle_line1": "1 29819U 99025DM  25336.84163595  .00000834  00000+0  48651-3 0  9995",
        "tle_line2": "2 29819  98.7301 320.9939 0191620  94.6347 340.9483 14.02173682964819"
      },
      "geometry": {
        "type": "Point",
        "coordinates": [
          140.8391059511574,
          -3.8032108737020773
        ]
      }
    },
    {
      "type": "Feature",
      "properties": {
        "norad_id": 29820,
        "name": "FENGYUN 1C DEB",
        "group": "fengyun-1c-debris",
        "lat": 33.70041036497588,
        "lon": 170.58100180921173,
        "alt_km": 907.3591371378179,
        "timestamp": "2025-12-03T06:58:43.509373+00:00",
        "meta_object_name": "FENGYUN 1C DEB",
        "meta_object_id": "1999-025DN",
        "meta_epoch": "2025-12-02T19:08:06.535968",
        "meta_mean_motion": 14.02579425,
        "meta_eccentricity": 0.0071605,
        "meta_inclination": 98.8319,
        "meta_ra_of_asc_node": 344.1508,
        "meta_arg_of_pericenter": 265.8105,
        "meta_mean_anomaly": 270.2958,
        "meta_ephemeris_type": 0,
        "meta_classification_type": "U",
        "meta_norad_cat_id": 29820,
        "meta_element_set_no": 999,
        "meta_rev_at_epoch": 96420,
        "meta_bstar": 0.00053524,
        "meta_mean_motion_dot": 8e-06,
        "meta_mean_motion_ddot": 0,
        "tle_line1": "1 29820U 99025DN  25336.79729787  .00000800  00000+0  53524-3 0  9990",
        "tle_line2": "2 29820  98.8319 344.1508 0071605 265.8105 270.2958 14.02579425964205"
      },
      "geometry": {
        "type": "Point",
        "coordinates": [
          170.58100180921173,
          33.70041036497588
        ]
      }
    },
    {
      "type": "Feature",
      "properties": {
        "norad_id": 29821,
        "name": "FENGYUN 1C DEB",
        "group": "fengyun-1c-debris",
        "lat": -80.76306317016329,
        "lon": 106.27869986182762,
        "alt_km": 1013.1651102103733,
        "timestamp": "2025-12-03T06:58:43.509383+00:00",
        "meta_object_name": "FENGYUN 1C DEB",
        "meta_object_id": "1999-025DP",
        "meta_epoch": "2025-12-02T16:40:34.627008",
        "meta_mean_motion": 14.1097697,
        "meta_eccentricity": 0.0376571,
        "meta_inclination": 98.8752,
        "meta_ra_of_asc_node": 31.7841,
        "meta_arg_of_pericenter": 149.099,
        "meta_mean_anomaly": 334.4851,
        "meta_ephemeris_type": 0,
        "meta_classification_type": "U",
        "meta_norad_cat_id": 29821,
        "meta_element_set_no": 999,
        "meta_rev_at_epoch": 96369,
        "meta_bstar": 0.0012622,
        "meta_mean_motion_dot": 4.378e-05,
        "meta_mean_motion_ddot": 0,
        "tle_line1": "1 29821U 99025DP  25336.69484522  .00004378  00000+0  12622-2 0  9992",
        "tle_line2": "2 29821  98.8752  31.7841 0376571 149.0990 334.4851 14.10976970963693"
      },
      "geometry": {
        "type": "Point",
        "coordinates": [
          106.27869986182762,
          -80.76306317016329
        ]
      }
    },
    {
      "type": "Feature",
      "properties": {
        "norad_id": 29827,
        "name": "FENGYUN 1C DEB",
        "group": "fengyun-1c-debris",
        "lat": -68.60440415736683,
        "lon": 126.00306358941366,
        "alt_km": 830.1018053714606,
        "timestamp": "2025-12-03T06:58:43.509394+00:00",
        "meta_object_name": "FENGYUN 1C DEB",
        "meta_object_id": "1999-025DV",
        "meta_epoch": "2025-12-02T11:49:59.349792",
        "meta_mean_motion": 14.21661505,
        "meta_eccentricity": 0.0025537,
        "meta_inclination": 98.6016,
        "meta_ra_of_asc_node": 327.951,
        "meta_arg_of_pericenter": 352.5409,
        "meta_mean_anomaly": 137.566,
        "meta_ephemeris_type": 0,
        "meta_classification_type": "U",
        "meta_norad_cat_id": 29827,
        "meta_element_set_no": 999,
        "meta_rev_at_epoch": 97717,
        "meta_bstar": 0.00045107171,
        "meta_mean_motion_dot": 9.5e-06,
        "meta_mean_motion_ddot": 0,
        "tle_line1": "1 29827U 99025DV  25336.49304803  .00000950  00000+0  45107-3 0  9996",
        "tle_line2": "2 29827  98.6016 327.9510 0025537 352.5409 137.5660 14.21661505977177"
      },
      "geometry": {
        "type": "Point",
        "coordinates": [
          126.00306358941366,
          -68.60440415736683
        ]
      }
    }
  ]
}